{"type": "FeatureCollection", "features": [{"id": "40dd180f-ffb0-4d96-aa9c-b97c9b3c75d8", "type": "Feature", "geometry": {"type": "Polygon", "coordinates": [[[90.39012, 23.7516028], [90.3900988, 23.7515711], [90.3900908, 23.7515301], [90.3900492, 23.7515345], [90.3899919, 23.7512249], [90.3899453, 23.7512313], [90.3898694, 23.7508371], [90.3899974, 23.7508145], [90.3899906, 23.7507879], [90.3903884, 23.7507297], [90.3904565, 23.7507135], [90.3904752, 23.7507882], [90.3907584, 23.7507372], [90.3907415, 23.7506566], [90.3912694, 23.7505416], [90.3912941, 23.7506544], [90.3913385, 23.7508569], [90.3913555, 23.7510591], [90.3913522, 23.7512627], [90.3913712, 23.7514002], [90.391295, 23.7514141], [90.3913119, 23.7514946], [90.3912215, 23.7515861], [90.3911034, 23.7516297], [90.3908776, 23.7516714], [90.390809, 23.7517051], [90.390716, 23.7517255], [90.3906161, 23.751728], [90.3905519, 23.7517104], [90.390378, 23.7517387], [90.3902957, 23.7517375], [90.3902849, 23.7516953], [90.3901863, 23.7516556], [90.390143, 23.7516295], [90.39012, 23.7516028]]]}, "properties": {"names": {"primary": "বসুন্ধরা সিটি", "common": [["en", "Bashundhara City"], ["hi", "बशुंधरा सिटी"]], "rules": null}, "sources": [{"property": "", "dataset": "OpenStreetMap", "license": "ODbL-1.0", "record_id": "w24448713@19", "update_time": "2026-07-30T17:13:47.000Z", "confidence": null, "between": null, "provider": "osm", "resource": "planet", "version": "2026-09-06T00:00:00.000Z"}], "is_underground": false, "num_floors": 8, "subtype": "commercial", "class": "commercial", "has_parts": true, "version": 5}}, {"id": "65e69cc5-a110-49c4-9000-42d6b65680c1", "type": "Feature", "geometry": {"type": "Polygon", "coordinates": [[[90.4139539, 23.741503], [90.41386, 23.7414922], [90.4138622, 23.74137], [90.4138673, 23.7412571], [90.4139679, 23.7412625], [90.4139588, 23.7414194], [90.4139539, 23.741503]]]}, "properties": {"sources": [{"property": "", "dataset": "OpenStreetMap", "license": "ODbL-1.0", "record_id": "w981310500@3", "update_time": "2025-10-05T08:26:17.000Z", "confidence": null, "between": null, "provider": "osm", "resource": "planet", "version": "2026-09-06T00:00:00.000Z"}], "is_underground": false, "num_floors": 4, "subtype": "residential", "class": "residential", "has_parts": true, "version": 2}}, {"id": "96053aec-595a-4c8f-ab13-66c72a261272", "type": "Feature", "geometry": {"type": "Polygon", "coordinates": [[[90.3876705, 23.7637623], [90.3876573, 23.7637669], [90.3876493, 23.7639664], [90.3874744, 23.7637911], [90.3874478, 23.7637665], [90.3874351, 23.7637984], [90.3874135, 23.7638289], [90.3873812, 23.763856], [90.3873414, 23.7638749], [90.3872972, 23.7638835], [90.3872541, 23.7638813], [90.3872091, 23.7638673], [90.3871788, 23.7638492], [90.387151, 23.7638227], [90.3871321, 23.7637934], [90.3871259, 23.7637787], [90.3871212, 23.763763], [90.3871182, 23.7637453], [90.387085, 23.7637697], [90.3868814, 23.7639274], [90.3868872, 23.7637263], [90.3868692, 23.7637165], [90.3868568, 23.7636993], [90.3868542, 23.7636797], [90.3868631, 23.7636582], [90.3868764, 23.7636468], [90.3868969, 23.7636401], [90.3869067, 23.763446], [90.3869577, 23.7634135], [90.3871213, 23.7634272], [90.3869686, 23.7632746], [90.3870707, 23.7631953], [90.3875466, 23.7632178], [90.3876337, 23.7633], [90.3874651, 23.7634392], [90.3876312, 23.7634487], [90.3876761, 23.7634823], [90.3876628, 23.7636786], [90.3876833, 23.763691], [90.3876938, 23.7637074], [90.387696, 23.7637281], [90.3876877, 23.763748], [90.3876705, 23.7637623]]]}, "properties": {"sources": [{"property": "", "dataset": "OpenStreetMap", "license": "ODbL-1.0", "record_id": "w264634214@19", "update_time": "2021-09-13T09:12:24.000Z", "confidence": null, "between": null, "provider": "osm", "resource": "planet", "version": "2026-09-06T00:00:00.000Z"}], "height": 12.0, "is_underground": false, "num_floors": 3, "roof_color": "#FF00FF", "has_parts": true, "version": 1}}, {"id": "aea6700d-45df-4fc4-aafc-ef0ecbca9c01", "type": "Feature", "geometry": {"type": "Polygon", "coordinates": [[[90.4144366, 23.7430893], [90.4144212, 23.7430729], [90.4144624, 23.7430406], [90.4146293, 23.7432158], [90.4145846, 23.7432507], [90.4145693, 23.7432343], [90.4143956, 23.7433695], [90.4142636, 23.7432252], [90.4144366, 23.7430893]]]}, "properties": {"names": {"primary": "SB office", "common": null, "rules": null}, "sources": [{"property": "", "dataset": "OpenStreetMap", "license": "ODbL-1.0", "record_id": "w981333517@1", "update_time": "2021-09-09T18:12:23.000Z", "confidence": null, "between": null, "provider": "osm", "resource": "planet", "version": "2026-09-06T00:00:00.000Z"}], "is_underground": false, "num_floors": 5, "has_parts": true, "version": 1}}, {"id": "d470ed6d-ef1a-4d24-a347-c673ea0db155", "type": "Feature", "geometry": {"type": "Polygon", "coordinates": [[[90.3924295, 23.7590723], [90.3924198, 23.7592185], [90.3921796, 23.7591453], [90.3920414, 23.7589966], [90.3919957, 23.7587798], [90.3921407, 23.7587847], [90.3922031, 23.7587868], [90.3922138, 23.75876], [90.3923773, 23.7587668], [90.3924225, 23.7587801], [90.3924521, 23.7588077], [90.3924555, 23.7588491], [90.3924485, 23.7588659], [90.3924371, 23.7588829], [90.3924372, 23.7589575], [90.3924295, 23.7590723]]]}, "properties": {"sources": [{"property": "", "dataset": "OpenStreetMap", "license": "ODbL-1.0", "record_id": "w717625483@2", "update_time": "2021-09-15T14:59:54.000Z", "confidence": null, "between": null, "provider": "osm", "resource": "planet", "version": "2026-09-06T00:00:00.000Z"}], "is_underground": false, "num_floors": 1, "subtype": "religious", "has_parts": true, "version": 1}}, {"id": "ee83db68-e566-4175-abd3-233a41da9e72", "type": "Feature", "geometry": {"type": "Polygon", "coordinates": [[[90.4123492, 23.7413265], [90.4123956, 23.7413242], [90.4123981, 23.7413661], [90.4123995, 23.7413904], [90.4124042, 23.7414703], [90.4124452, 23.7414683], [90.4124505, 23.7415568], [90.4121752, 23.7415701], [90.4121712, 23.7414944], [90.4122981, 23.7413546], [90.4123492, 23.7413265]]]}, "properties": {"names": {"primary": "Aziz Market", "common": null, "rules": null}, "sources": [{"property": "", "dataset": "OpenStreetMap", "license": "ODbL-1.0", "record_id": "w980090994@3", "update_time": "2021-09-07T15:14:15.000Z", "confidence": null, "between": null, "provider": "osm", "resource": "planet", "version": "2026-09-06T00:00:00.000Z"}], "is_underground": false, "num_floors": 6, "subtype": "commercial", "class": "commercial", "has_parts": true, "version": 1}}, {"id": "fbd4c0d4-4f3e-48d7-b3b0-0a72deffbbfa", "type": "Feature", "geometry": {"type": "Polygon", "coordinates": [[[90.3854524, 23.7599949], [90.3851712, 23.7599751], [90.3851894, 23.7597586], [90.3852126, 23.7597602], [90.3852248, 23.759615], [90.3851993, 23.7596132], [90.3852148, 23.7594289], [90.3853267, 23.7594368], [90.385353, 23.7591235], [90.3853537, 23.7591152], [90.3855909, 23.7591319], [90.3855639, 23.7594534], [90.3855593, 23.7595084], [90.3855425, 23.7595072], [90.3855316, 23.7596366], [90.3852731, 23.7596184], [90.3852609, 23.7597636], [90.3854706, 23.7597783], [90.3854524, 23.7599949]]]}, "properties": {"names": {"primary": "Krishibid Institution Bangladesh", "common": [["bn", "কৃষিবিদ ইনস্টিটিউশন বাংলাদেশ"]], "rules": null}, "sources": [{"property": "", "dataset": "OpenStreetMap", "license": "ODbL-1.0", "record_id": "w501378100@17", "update_time": "2023-10-21T13:29:31.000Z", "confidence": null, "between": null, "provider": "osm", "resource": "planet", "version": "2026-09-06T00:00:00.000Z"}], "level": -1, "is_underground": false, "num_floors": 7, "num_floors_underground": 3, "subtype": "transportation", "class": "parking", "facade_material": "glass", "roof_shape": "flat", "roof_color": "#00FFFF", "has_parts": true, "version": 1}}]}